{"type": "FeatureCollection", "features": [{"type": "Feature", "properties": {"norad_id": 24946, "name": "IRIDIUM 33", "group": "iridium-33-debris", "lat": 58.31238046005695, "lon": 78.02695689135847, "alt_km": 773.7993422869558, "timestamp": "2025-12-03T08:58:46.387016+00:00", "meta": {"OBJECT_NAME": "IRIDIUM 33", "OBJECT_ID": "1997-051C", "EPOCH": "2025-12-03T00:20:24.402912", "MEAN_MOTION": 14.35025442, "ECCENTRICITY": 0.0006094, "INCLINATION": 86.387, "RA_OF_ASC_NODE": 72.3034, "ARG_OF_PERICENTER": 238.0484, "MEAN_ANOMALY": 122.012, "EPHEMERIS_TYPE": 0, "CLASSIFICATION_TYPE": "U", "NORAD_CAT_ID": 24946, "ELEMENT_SET_NO": 999, "REV_AT_EPOCH": 47695, "BSTAR": 0.00016993, "MEAN_MOTION_DOT": 5.03e-06, "MEAN_MOTION_DDOT": 0}, "tle": {"line1": "1 24946U 97051C   25337.01417133  .00000503  00000+0  16993-3 0  9995", "line2": "2 24946  86.3870  72.3034 0006094 238.0484 122.0120 14.35025442476955"}}, "geometry": {"type": "Point", "coordinates": [78.02695689135847, 58.31238046005695]}}, {"type": "Feature", "properties": {"norad_id": 33773, "name": "IRIDIUM 33 DEB", "group": "iridium-33-debris", "lat": 80.23357320068372, "lon": -136.88759638159146, "alt_km": 738.614233555084, "timestamp": "2025-12-03T08:58:46.387064+00:00", "meta": {"OBJECT_NAME": "IRIDIUM 33 DEB", "OBJECT_ID": "1997-051L", "EPOCH": "2025-12-02T19:12:34.458048", "MEAN_MOTION": 14.43219569, "ECCENTRICITY": 0.0011431, "INCLINATION": 86.4014, "RA_OF_ASC_NODE": 64.8005, "ARG_OF_PERICENTER": 177.1469, "MEAN_ANOMALY": 182.9799, "EPHEMERIS_TYPE": 0, "CLASSIFICATION_TYPE": "U", "NORAD_CAT_ID": 33773, "ELEMENT_SET_NO": 999, "REV_AT_EPOCH": 88204, "BSTAR": 0.00045844, "MEAN_MOTION_DOT": 1.562e-05, "MEAN_MOTION_DDOT": 0}, "tle": {"line1": "1 33773U 97051L   25336.80039882  .00001562  00000+0  45844-3 0  9993", "line2": "2 33773  86.4014  64.8005 0011431 177.1469 182.9799 14.43219569882047"}}, "geometry": {"type": "Point", "coordinates": [-136.88759638159146, 80.23357320068372]}}, {"type": "Feature", "properties": {"norad_id": 33775, "name": "IRIDIUM 33 DEB", "group": "iridium-33-debris", "lat": -62.85882139117534, "lon": -119.3241478350708, "alt_km": 756.1387832424944, "timestamp": "2025-12-03T08:58:46.387089+00:00", "meta": {"OBJECT_NAME": "IRIDIUM 33 DEB", "OBJECT_ID": "1997-051N", "EPOCH": "2025-12-03T00:21:13.834080", "MEAN_MOTION": 14.41432367, "ECCENTRICITY": 0.0013173, "INCLINATION": 86.3643, "RA_OF_ASC_NODE": 53.7045, "ARG_OF_PERICENTER": 185.631, "MEAN_ANOMALY": 353.4453, "EPHEMERIS_TYPE": 0, "CLASSIFICATION_TYPE": "U", "NORAD_CAT_ID": 33775, "ELEMENT_SET_NO": 999, "REV_AT_EPOCH": 88000, "BSTAR": 0.00046628, "MEAN_MOTION_DOT": 1.532e-05, "MEAN_MOTION_DDOT": 0}, "tle": {"line1": "1 33775U 97051N   25337.01474345  .00001532  00000+0  46628-3 0  9994", "line2": "2 33775  86.3643  53.7045 0013173 185.6310 353.4453 14.41432367880008"}}, "geometry": {"type": "Point", "coordinates": [-119.3241478350708, -62.85882139117534]}}, {"type": "Feature", "properties": {"norad_id": 33776, "name": "IRIDIUM 33 DEB", "group": "iridium-33-debris", "lat": -41.38640067427278, "lon": -92.11459589279069, "alt_km": 761.5941360093566, "timestamp": "2025-12-03T08:58:46.387104+00:00", "meta": {"OBJECT_NAME": "IRIDIUM 33 DEB", "OBJECT_ID": "1997-051P", "EPOCH": "2025-12-02T19:07:05.354400", "MEAN_MOTION": 14.38202771, "ECCENTRICITY": 0.0013307, "INCLINATION": 86.4037, "RA_OF_ASC_NODE": 84.951, "ARG_OF_PERICENTER": 224.8807, "MEAN_ANOMALY": 248.0842, "EPHEMERIS_TYPE": 0, "CLASSIFICATION_TYPE": "U", "NORAD_CAT_ID": 33776, "ELEMENT_SET_NO": 999, "REV_AT_EPOCH": 87939, "BSTAR": 0.00041731, "MEAN_MOTION_DOT": 1.287e-05, "MEAN_MOTION_DDOT": 0}, "tle": {"line1": "1 33776U 97051P   25336.79658975  .00001287  00000+0  41731-3 0  9999", "line2": "2 33776  86.4037  84.9510 0013307 224.8807 248.0842 14.38202771879397"}}, "geometry": {"type": "Point", "coordinates": [-92.11459589279069, -41.38640067427278]}}, {"type": "Feature", "properties": {"norad_id": 33777, "name": "IRIDIUM 33 DEB", "group": "iridium-33-debris", "lat": 34.48022594183778, "lon": -143.21479927710146, "alt_km": 708.7185959328363, "timestamp": "2025-12-03T08:58:46.387118+00:00", "meta": {"OBJECT_NAME": "IRIDIUM 33 DEB", "OBJECT_ID": "1997-051Q", "EPOCH": "2025-12-03T03:21:48.856320", "MEAN_MOTION": 14.55490423, "ECCENTRICITY": 0.0005159, "INCLINATION": 86.3802, "RA_OF_ASC_NODE": 39.3786, "ARG_OF_PERICENTER": 294.2135, "MEAN_ANOMALY": 65.8533, "EPHEMERIS_TYPE": 0, "CLASSIFICATION_TYPE": "U", "NORAD_CAT_ID": 33777, "ELEMENT_SET_NO": 999, "REV_AT_EPOCH": 88394, "BSTAR": 0.0012888, "MEAN_MOTION_DOT": 5.628e-05, "MEAN_MOTION_DDOT": 0}, "tle": {"line1": "1 33777U 97051Q   25337.14014880  .00005628  00000+0  12888-2 0  9994", "line2": "2 33777  86.3802  39.3786 0005159 294.2135  65.8533 14.55490423883947"}}, "geometry": {"type": "Point", "coordinates": [-143.21479927710146, 34.48022594183778]}}, {"type": "Feature", "properties": {"norad_id": 33850, "name": "IRIDIUM 33 DEB", "group": "iridium-33-debris", "lat": -21.042319819252473, "lon": -144.3837202694469, "alt_km": 749.0402038976408, "timestamp": "2025-12-03T08:58:46.387130+00:00", "meta": {"OBJECT_NAME": "IRIDIUM 33 DEB", "OBJECT_ID": "1997-051T", "EPOCH": "2025-12-02T22:51:37.943136", "MEAN_MOTION": 14.42110788, "ECCENTRICITY": 0.0011173, "INCLINATION": 86.3425, "RA_OF_ASC_NODE": 34.3874, "ARG_OF_PERICENTER": 192.0095, "MEAN_ANOMALY": 341.4197, "EPHEMERIS_TYPE": 0, "CLASSIFICATION_TYPE": "U", "NORAD_CAT_ID": 33850, "ELEMENT_SET_NO": 999, "REV_AT_EPOCH": 88011, "BSTAR": 0.0005659, "MEAN_MOTION_DOT": 1.88e-05, "MEAN_MOTION_DDOT": 0}, "tle": {"line1": "1 33850U 97051T   25336.95252249  .00001880  00000+0  56590-3 0  9992", "line2": "2 33850  86.3425  34.3874 0011173 192.0095 341.4197 14.42110788880110"}}, "geometry": {"type": "Point", "coordinates": [-144.3837202694469, -21.042319819252473]}}, {"type": "Feature", "properties": {"norad_id": 33853, "name": "IRIDIUM 33 DEB", "group": "iridium-33-debris", "lat": -54.161384520161455, "lon": 179.47786598823177, "alt_km": 774.0084019663855, "timestamp": "2025-12-03T08:58:46.387144+00:00", "meta": {"OBJECT_NAME": "IRIDIUM 33 DEB", "OBJECT_ID": "1997-051W", "EPOCH": "2025-12-03T01:14:37.863168", "MEAN_MOTION": 13.9895633, "ECCENTRICITY": 0.0206831, "INCLINATION": 86.0005, "RA_OF_ASC_NODE": 354.0603, "ARG_OF_PERICENTER": 265.7675, "MEAN_ANOMALY": 147.401, "EPHEMERIS_TYPE": 0, "CLASSIFICATION_TYPE": "U", "NORAD_CAT_ID": 33853, "ELEMENT_SET_NO": 999, "REV_AT_EPOCH": 85210, "BSTAR": 0.0028183, "MEAN_MOTION_DOT": 4.902e-05, "MEAN_MOTION_DDOT": 0}, "tle": {"line1": "1 33853U 97051W   25337.05182712  .00004902  00000+0  28183-2 0  9998", "line2": "2 33853  86.0005 354.0603 0206831 265.7675 147.4010 13.98956330852102"}}, "geometry": {"type": "Point", "coordinates": [179.47786598823177, -54.161384520161455]}}, {"type": "Feature", "properties": {"norad_id": 33860, "name": "IRIDIUM 33 DEB", "group": "iridium-33-debris", "lat": 8.251833115484676, "lon": 31.90820831899737, "alt_km": 666.4016418424053, "timestamp": "2025-12-03T08:58:46.387156+00:00", "meta": {"OBJECT_NAME": "IRIDIUM 33 DEB", "OBJECT_ID": "1997-051AD", "EPOCH": "2025-12-03T04:19:16.478976", "MEAN_MOTION": 14.67156816, "ECCENTRICITY": 0.0008621, "INCLINATION": 86.385, "RA_OF_ASC_NODE": 31.4687, "ARG_OF_PERICENTER": 29.2665, "MEAN_ANOMALY": 34.6506, "EPHEMERIS_TYPE": 0, "CLASSIFICATION_TYPE": "U", "NORAD_CAT_ID": 33860, "ELEMENT_SET_NO": 999, "REV_AT_EPOCH": 88582, "BSTAR": 0.0017428, "MEAN_MOTION_DOT": 9.83e-05, "MEAN_MOTION_DDOT": 0}, "tle": {"line1": "1 33860U 97051AD  25337.18005184  .00009830  00000+0  17428-2 0  9992", "line2": "2 33860  86.3850  31.4687 0008621  29.2665  34.6506 14.67156816885828"}}, "geometry": {"type": "Point", "coordinates": [31.90820831899737, 8.251833115484676]}}, {"type": "Feature", "properties": {"norad_id": 33862, "name": "IRIDIUM 33 DEB", "group": "iridium-33-debris", "lat": -26.984916906027546, "lon": 39.82742101278051, "alt_km": 692.4049132388418, "timestamp": "2025-12-03T08:58:46.387168+00:00", "meta": {"OBJECT_NAME": "IRIDIUM 33 DEB", "OBJECT_ID": "1997-051AF", "EPOCH": "2025-12-03T04:17:47.182848", "MEAN_MOTION": 14.69210658, "ECCENTRICITY": 0.0054085, "INCLINATION": 86.4104, "RA_OF_ASC_NODE": 41.7451, "ARG_OF_PERICENTER": 101.0892, "MEAN_ANOMALY": 281.076, "EPHEMERIS_TYPE": 0, "CLASSIFICATION_TYPE": "U", "NORAD_CAT_ID": 33862, "ELEMENT_SET_NO": 999, "REV_AT_EPOCH": 88683, "BSTAR": 0.0018598, "MEAN_MOTION_DOT": 0.00011231, "MEAN_MOTION_DDOT": 0}, "tle": {"line1": "1 33862U 97051AF  25337.17901832  .00011231  00000+0  18598-2 0  9995", "line2": "2 33862  86.4104  41.7451 0054085 101.0892 281.0760 14.69210658886831"}}, "geometry": {"type": "Point", "coordinates": [39.82742101278051, -26.984916906027546]}}, {"type": "Feature", "properties": {"norad_id": 33866, "name": "IRIDIUM 33 DEB", "group": "iridium-33-debris", "lat": 81.6003939741481, "lon": 122.99117760817316, "alt_km": 825.881965300091, "timestamp": "2025-12-03T08:58:46.387180+00:00", "meta": {"OBJECT_NAME": "IRIDIUM 33 DEB", "OBJECT_ID": "1997-051AK", "EPOCH": "2025-12-03T02:25:59.277792", "MEAN_MOTION": 14.25217541, "ECCENTRICITY": 0.0113682, "INCLINATION": 86.2996, "RA_OF_ASC_NODE": 97.1128, "ARG_OF_PERICENTER": 192.1363, "MEAN_ANOMALY": 292.9347, "EPHEMERIS_TYPE": 0, "CLASSIFICATION_TYPE": "U", "NORAD_CAT_ID": 33866, "ELEMENT_SET_NO": 999, "REV_AT_EPOCH": 86673, "BSTAR": 0.00093699, "MEAN_MOTION_DOT": 2.374e-05, "MEAN_MOTION_DDOT": 0}, "tle": {"line1": "1 33866U 97051AK  25337.10138053  .00002374  00000+0  93699-3 0  9993", "line2": "2 33866  86.2996  97.1128 0113682 192.1363 292.9347 14.25217541866730"}}, "geometry": {"type": "Point", "coordinates": [122.99117760817316, 81.6003939741481]}}]}